ORBCOMM FM20 [+]        
1 25416U 98046D   23231.98946515  .00001049  00000+0  41971-3 0  9991
2 25416  44.9951  92.9925 0000822  51.8178 308.2743 14.34318922308421
ORBCOMM FM16 [-]        
1 25417U 98046E   23232.16551603  .00001360  00000+0  52280-3 0  9994
2 25417  44.9951  89.5576 0003210 179.0880 180.9973 14.34962020308540
ORBCOMM FM15 [-]        
1 25418U 98046F   23232.07569466  .00001359  00000+0  52478-3 0  9998
2 25418  44.9982  93.4643 0002646 182.2235 177.8600 14.34730612308492
ORBCOMM FM14 [-]        
1 25419U 98046G   23232.08608090  .00001346  00000+0  51925-3 0  9999
2 25419  44.9974  92.8075 0001733 155.8736   8.4333 14.34825121308508
ORBCOMM FM13 [+]        
1 25420U 98046H   23231.77959936  .00001152  00000+0  45591-3 0  9991
2 25420  44.9985  97.8737 0003857 163.9075 196.1894 14.34326237308441
ORBCOMM FM21 [-]        
1 25475U 98053A   23231.86787689  .00001328  00000+0  51771-3 0  9995
2 25475  45.0081 181.5222 0001515 311.9807  48.0910 14.34349828301670
ORBCOMM FM22 [-]        
1 25476U 98053B   23231.92340674  .00001402  00000+0  54034-3 0  9990
2 25476  45.0077 179.4125 0000606  51.1327 308.9574 14.34688932301692
ORBCOMM FM23 [-]        
1 25477U 98053C   23232.03588864  .00001372  00000+0  53354-3 0  9999
2 25477  45.0083 183.1609 0000656 344.3094  15.7733 14.34324069301825
